{
  "type": "FeatureCollection",
  "features": [
    {
      "type": "Feature",
      "properties": {
        "norad_id": 40938,
        "name": "BEIDOU-3S IGSO-2S (C56)",
        "group": "gnss",
        "lat": -8.763187787829006,
        "lon": 88.4143638806394,
        "alt_km": 35533.048703756154,
        "timestamp": "2025-12-26T17:24:54.962065+00:00",
        "meta_object_name": "BEIDOU-3S IGSO-2S (C56)",
        "meta_object_id": "2015-053A",
        "meta_epoch": "2025-12-26T06:00:23.194944",
        "meta_mean_motion": 1.00267028,
        "meta_eccentricity": 0.0060661,
        "meta_inclination": 49.4896,
        "meta_ra_of_asc_node": 260.8471,
        "meta_arg_of_pericenter": 188.3782,
        "meta_mean_anomaly": 191.6078,
        "meta_ephemeris_type": 0,
        "meta_classification_type": "U",
        "meta_norad_cat_id": 40938,
        "meta_element_set_no": 999,
        "meta_rev_at_epoch": 3762,
        "meta_bstar": 0,
        "meta_mean_motion_dot": -1.23e-06,
        "meta_mean_motion_ddot": 0,
        "tle_line1": "1 40938U 15053A   25360.25026846 -.00000123  00000+0  00000+0 0  9992",
        "tle_line2": "2 40938  49.4896 260.8471 0060661 188.3782 191.6078  1.00267028 37626"
      },
      "geometry": {
        "type": "Point",
        "coordinates": [
          88.4143638806394,
          -8.763187787829006
        ]
      }
    },
    {
      "type": "Feature",
      "properties": {
        "norad_id": 41019,
        "name": "GPS BIIF-11 (PRN 10)",
        "group": "gnss",
        "lat": -26.15368748222288,
        "lon": 18.759490152066817,
        "alt_km": 20222.74709105908,
        "timestamp": "2025-12-26T17:24:54.962076+00:00",
        "meta_object_name": "GPS BIIF-11 (PRN 10)",
        "meta_object_id": "2015-062A",
        "meta_epoch": "2025-12-26T06:30:53.632512",
        "meta_mean_motion": 2.00567029,
        "meta_eccentricity": 0.01111286,
        "meta_inclination": 56.842,
        "meta_ra_of_asc_node": 37.479,
        "meta_arg_of_pericenter": 230.2895,
        "meta_mean_anomaly": 128.7854,
        "meta_ephemeris_type": 0,
        "meta_classification_type": "U",
        "meta_norad_cat_id": 41019,
        "meta_element_set_no": 999,
        "meta_rev_at_epoch": 7436,
        "meta_bstar": 0,
        "meta_mean_motion_dot": -4.9e-07,
        "meta_mean_motion_ddot": 0,
        "tle_line1": "1 41019U 15062A   25360.27145408 -.00000049  00000+0  00000+0 0  9998",
        "tle_line2": "2 41019  56.8420  37.4790 0111128 230.2895 128.7854  2.00567029 74361"
      },
      "geometry": {
        "type": "Point",
        "coordinates": [
          18.759490152066817,
          -26.15368748222288
        ]
      }
    },
    {
      "type": "Feature",
      "properties": {
        "norad_id": 41028,
        "name": "GSAT-15 (GAGAN/PRN 139)",
        "group": "gnss",
        "lat": 0.022174074969082056,
        "lon": 90.1836286156343,
        "alt_km": 35795.512599623915,
        "timestamp": "2025-12-26T17:24:54.962090+00:00",
        "meta_object_name": "GSAT-15 (GAGAN/PRN 139)",
        "meta_object_id": "2015-065A",
        "meta_epoch": "2025-12-26T00:05:38.530752",
        "meta_mean_motion": 1.00270739,
        "meta_eccentricity": 0.00024039,
        "meta_inclination": 0.0162,
        "meta_ra_of_asc_node": 309.5536,
        "meta_arg_of_pericenter": 293.7172,
        "meta_mean_anomaly": 306.4055,
        "meta_ephemeris_type": 0,
        "meta_classification_type": "U",
        "meta_norad_cat_id": 41028,
        "meta_element_set_no": 999,
        "meta_rev_at_epoch": 3706,
        "meta_bstar": 0,
        "meta_mean_motion_dot": -2.36e-06,
        "meta_mean_motion_ddot": 0,
        "tle_line1": "1 41028U 15065A   25360.00391818 -.00000236  00000+0  00000+0 0  9998",
        "tle_line2": "2 41028   0.0162 309.5536 0002403 293.7172 306.4055  1.00270739 37065"
      },
      "geometry": {
        "type": "Point",
        "coordinates": [
          90.1836286156343,
          0.022174074969082056
        ]
      }
    },
    {
      "type": "Feature",
      "properties": {
        "norad_id": 41174,
        "name": "GSAT0209 (GALILEO 12)",
        "group": "gnss",
        "lat": 55.65826393259407,
        "lon": -168.48113100842824,
        "alt_km": 23217.60549752734,
        "timestamp": "2025-12-26T17:24:54.962101+00:00",
        "meta_object_name": "GSAT0209 (GALILEO 12)",
        "meta_object_id": "2015-079A",
        "meta_epoch": "2025-12-21T21:22:17.332896",
        "meta_mean_motion": 1.70474556,
        "meta_eccentricity": 0.00025231,
        "meta_inclination": 55.7178,
        "meta_ra_of_asc_node": 106.13,
        "meta_arg_of_pericenter": 342.7574,
        "meta_mean_anomaly": 17.2091,
        "meta_ephemeris_type": 0,
        "meta_classification_type": "U",
        "meta_norad_cat_id": 41174,
        "meta_element_set_no": 999,
        "meta_rev_at_epoch": 6175,
        "meta_bstar": 0,
        "meta_mean_motion_dot": 5e-08,
        "meta_mean_motion_ddot": 0,
        "tle_line1": "1 41174U 15079A   25355.89047839  .00000005  00000+0  00000+0 0  9990",
        "tle_line2": "2 41174  55.7178 106.1300 0002523 342.7574  17.2091  1.70474556 61755"
      },
      "geometry": {
        "type": "Point",
        "coordinates": [
          -168.48113100842824,
          55.65826393259407
        ]
      }
    },
    {
      "type": "Feature",
      "properties": {
        "norad_id": 41175,
        "name": "GSAT0208 (GALILEO 11)",
        "group": "gnss",
        "lat": -37.68461418945367,
        "lon": 74.24631215087089,
        "alt_km": 23222.191140417,
        "timestamp": "2025-12-26T17:24:54.962112+00:00",
        "meta_object_name": "GSAT0208 (GALILEO 11)",
        "meta_object_id": "2015-079B",
        "meta_epoch": "2025-12-24T10:58:05.169792",
        "meta_mean_motion": 1.70474188,
        "meta_eccentricity": 0.0001919,
        "meta_inclination": 55.7178,
        "meta_ra_of_asc_node": 106.0566,
        "meta_arg_of_pericenter": 349.2148,
        "meta_mean_anomaly": 10.7717,
        "meta_ephemeris_type": 0,
        "meta_classification_type": "U",
        "meta_norad_cat_id": 41175,
        "meta_element_set_no": 999,
        "meta_rev_at_epoch": 6221,
        "meta_bstar": 0,
        "meta_mean_motion_dot": 1.6e-07,
        "meta_mean_motion_ddot": 0,
        "tle_line1": "1 41175U 15079B   25358.45700428  .00000016  00000+0  00000+0 0  9998",
        "tle_line2": "2 41175  55.7178 106.0566 0001919 349.2148  10.7717  1.70474188 62212"
      },
      "geometry": {
        "type": "Point",
        "coordinates": [
          74.24631215087089,
          -37.68461418945367
        ]
      }
    },
    {
      "type": "Feature",
      "properties": {
        "norad_id": 41241,
        "name": "IRNSS-1E",
        "group": "gnss",
        "lat": 22.94406045175244,
        "lon": 103.19211269683201,
        "alt_km": 35857.45006214835,
        "timestamp": "2025-12-26T17:24:54.962123+00:00",
        "meta_object_name": "IRNSS-1E",
        "meta_object_id": "2016-003A",
        "meta_epoch": "2025-12-24T15:55:26.719680",
        "meta_mean_motion": 1.0026854,
        "meta_eccentricity": 0.00215442,
        "meta_inclination": 32.8513,
        "meta_ra_of_asc_node": 62.279,
        "meta_arg_of_pericenter": 188.9872,
        "meta_mean_anomaly": 192.7105,
        "meta_ephemeris_type": 0,
        "meta_classification_type": "U",
        "meta_norad_cat_id": 41241,
        "meta_element_set_no": 999,
        "meta_rev_at_epoch": 3633,
        "meta_bstar": 0,
        "meta_mean_motion_dot": -2.92e-06,
        "meta_mean_motion_ddot": 0,
        "tle_line1": "1 41241U 16003A   25358.66350370 -.00000292  00000+0  00000+0 0  9997",
        "tle_line2": "2 41241  32.8513  62.2790 0021544 188.9872 192.7105  1.00268540 36337"
      },
      "geometry": {
        "type": "Point",
        "coordinates": [
          103.19211269683201,
          22.94406045175244
        ]
      }
    },
    {
      "type": "Feature",
      "properties": {
        "norad_id": 41328,
        "name": "GPS BIIF-12 (PRN 32)",
        "group": "gnss",
        "lat": -55.35853994761077,
        "lon": 2.0677279720029937,
        "alt_km": 19962.417539375023,
        "timestamp": "2025-12-26T17:24:54.962135+00:00",
        "meta_object_name": "GPS BIIF-12 (PRN 32)",
        "meta_object_id": "2016-007A",
        "meta_epoch": "2025-12-25T20:32:16.174464",
        "meta_mean_motion": 2.00559967,
        "meta_eccentricity": 0.00928247,
        "meta_inclination": 55.4133,
        "meta_ra_of_asc_node": 96.3364,
        "meta_arg_of_pericenter": 243.9276,
        "meta_mean_anomaly": 115.1304,
        "meta_ephemeris_type": 0,
        "meta_classification_type": "U",
        "meta_norad_cat_id": 41328,
        "meta_element_set_no": 999,
        "meta_rev_at_epoch": 7236,
        "meta_bstar": 0,
        "meta_mean_motion_dot": 1.1e-07,
        "meta_mean_motion_ddot": 0,
        "tle_line1": "1 41328U 16007A   25359.85574276  .00000011  00000+0  00000+0 0  9990",
        "tle_line2": "2 41328  55.4133  96.3364 0092824 243.9276 115.1304  2.00559967 72366"
      },
      "geometry": {
        "type": "Point",
        "coordinates": [
          2.0677279720029937,
          -55.35853994761077
        ]
      }
    }
  ]
}